$$SOE
2460728.500000000, A.D. 2025-Feb-22 00:00:00.0000, 4.469168278612850E+08, -2.158970591122121E+08, 8.384989282262221E+06,
2460735.500000000, A.D. 2025-Mar-01 00:00:00.0000, 4.510198502342056E+08, -2.071032385971498E+08, 7.118834387147248E+06,
2460742.500000000, A.D. 2025-Mar-08 00:00:00.0000, 4.549438246580400E+08, -1.982272512999115E+08, 5.849852238906175E+06,
2460749.500000000, A.D. 2025-Mar-15 00:00:00.0000, 4.586871321918713E+08, -1.892725904764071E+08, 4.578545507307574E+06,
2460756.500000000, A.D. 2025-Mar-22 00:00:00.0000, 4.622482188832587E+08, -1.802427791927034E+08, 3.305418354035378E+06,
2460763.500000000, A.D. 2025-Mar-29 00:00:00.0000, 4.656255955156494E+08, -1.711413710620996E+08, 2.030976205989361E+06,
2460770.500000000, A.D. 2025-Apr-05 00:00:00.0000, 4.688178390363547E+08, -1.619719500873411E+08, 7.557254452398270E+05,
2460777.500000000, A.D. 2025-Apr-12 00:00:00.0000, 4.718235937393683E+08, -1.527381295034555E+08, -5.198267994546294E+05,
2460784.500000000, A.D. 2025-Apr-19 00:00:00.0000, 4.746415720159910E+08, -1.434435505023170E+08, -1.795172814665616E+06,
2460791.500000000, A.D. 2025-Apr-26 00:00:00.0000, 4.772705549448615E+08, -1.340918810416261E+08, -3.069804459606148E+06,
2460798.500000000, A.D. 2025-May-03 00:00:00.0000, 4.797093928349774E+08, -1.246868147186896E+08, -4.343213327805467E+06,
2460805.500000000, A.D. 2025-May-10 00:00:00.0000, 4.819570057502631E+08, -1.152320696999394E+08, -5.614890915230572E+06,
2460812.500000000, A.D. 2025-May-17 00:00:00.0000, 4.840123840523578E+08, -1.057313877469813E+08, -6.884328801713392E+06,
2460819.500000000, A.D. 2025-May-24 00:00:00.0000, 4.858745891351268E+08, -9.618853339352301E+07, -8.151018866218165E+06,
2460826.500000000, A.D. 2025-May-31 00:00:00.0000, 4.875427547677045E+08, -8.660729296166670E+07, -9.414453548958268E+06,
2460833.500000000, A.D. 2025-Jun-07 00:00:00.0000, 4.890160886448924E+08, -7.699147221152397E+07, -1.067412602508152E+07,
2460840.500000000, A.D. 2025-Jun-14 00:00:00.0000, 4.902938717820293E+08, -6.734489329066305E+07, -1.192953012740860E+07,
2460847.500000000, A.D. 2025-Jun-21 00:00:00.0000, 4.913754569718399E+08, -5.767139425594401E+07, -1.318016039721165E+07,
2460854.500000000, A.D. 2025-Jun-28 00:00:00.0000, 4.922602694299082E+08, -4.797482940354940E+07, -1.442551240584275E+07,
2460861.500000000, A.D. 2025-Jul-05 00:00:00.0000, 4.929478081107713E+08, -3.825906825048830E+07, -1.566508303183658E+07,
2460868.500000000, A.D. 2025-Jul-12 00:00:00.0000, 4.934376465026755E+08, -2.852799397291528E+07, -1.689837064998479E+07,
2460875.500000000, A.D. 2025-Jul-19 00:00:00.0000, 4.937294330891550E+08, -1.878550187614085E+07, -1.812487529666974E+07,
2460882.500000000, A.D. 2025-Jul-26 00:00:00.0000, 4.938228916859970E+08, -9.035497952041037E+06, -1.934409883518481E+07,
2460889.500000000, A.D. 2025-Aug-02 00:00:00.0000, 4.937178217184718E+08, 7.181024991097897E+05, -2.055554512506825E+07,
2460896.500000000, A.D. 2025-Aug-09 00:00:00.0000, 4.934140984628860E+08, 1.047137616892330E+07, -2.175872019858096E+07,
2460903.500000000, A.D. 2025-Aug-16 00:00:00.0000, 4.929116733306869E+08, 2.022039290046449E+07, -2.295313245638011E+07,
2460910.500000000, A.D. 2025-Aug-23 00:00:00.0000, 4.922105744885081E+08, 2.996121672302516E+07, -2.413829290775353E+07,
2460917.500000000, A.D. 2025-Aug-30 00:00:00.0000, 4.913109081423072E+08, 3.968990747548661E+07, -2.531371542705264E+07,
2460924.500000000, A.D. 2025-Sep-06 00:00:00.0000, 4.902128590666103E+08, 4.940252401901901E+07, -2.647891681416839E+07,
2460931.500000000, A.D. 2025-Sep-13 00:00:00.0000, 4.889166887092537E+08, 5.909512655636901E+07, -2.763341670845700E+07,
2460938.500000000, A.D. 2025-Sep-20 00:00:00.0000, 4.874227341447553E+08, 6.876377641184390E+07, -2.877673779060799E+07,
2460945.500000000, A.D. 2025-Sep-27 00:00:00.0000, 4.857314089324334E+08, 7.840453638292207E+07, -2.990840611498873E+07,
2460952.500000000, A.D. 2025-Oct-04 00:00:00.0000, 4.838432038608258E+08, 8.801347220309153E+07, -3.102795134307408E+07,
2460959.500000000, A.D. 2025-Oct-11 00:00:00.0000, 4.817586872037983E+08, 9.758665417328872E+07, -3.213490692048726E+07,
2460966.500000000, A.D. 2025-Oct-18 00:00:00.0000, 4.794785047711592E+08, 1.071201586879330E+08, -3.322881024592159E+07,
2460973.500000000, A.D. 2025-Oct-25 00:00:00.0000, 4.770033798925884E+08, 1.166100696671568E+08, -3.430920284376949E+07,
2460980.500000000, A.D. 2025-Nov-01 00:00:00.0000, 4.743341133738846E+08, 1.260524799114414E+08, -3.537563054284982E+07,
2460987.500000000, A.D. 2025-Nov-08 00:00:00.0000, 4.714715834600052E+08, 1.354434923479321E+08, -3.642764366712154E+07,
2460994.500000000, A.D. 2025-Nov-15 00:00:00.0000, 4.684167459529883E+08, 1.447792211102541E+08, -3.746479725698861E+07,
2461001.500000000, A.D. 2025-Nov-22 00:00:00.0000, 4.651706348873771E+08, 1.540557926715942E+08, -3.848665134044126E+07,
2461008.500000000, A.D. 2025-Nov-29 00:00:00.0000, 4.617343636084685E+08, 1.632693481654873E+08, -3.949277114735229E+07,
2461015.500000000, A.D. 2025-Dec-06 00:00:00.0000, 4.581091239746530E+08, 1.724160467592214E+08, -4.048272706911262E+07,
2461022.500000000, A.D. 2025-Dec-13 00:00:00.0000, 4.542961841188927E+08, 1.814920667104033E+08, -4.145609467906263E+07,
2461029.500000000, A.D. 2025-Dec-20 00:00:00.0000, 4.502968882627552E+08, 1.904936051286398E+08, -4.241245505076008E+07,
2461036.500000000, A.D. 2025-Dec-27 00:00:00.0000, 4.461126575073208E+08, 1.994168790329626E+08, -4.335139506371769E+07,
2461043.500000000, A.D. 2026-Jan-03 00:00:00.0000, 4.417449901405555E+08, 2.082581270898398E+08, -4.427250761290363E+07,
2461050.500000000, A.D. 2026-Jan-10 00:00:00.0000, 4.371954615703872E+08, 2.170136113533714E+08, -4.517539178741854E+07,
2461057.500000000, A.D. 2026-Jan-17 00:00:00.0000, 4.324657241155424E+08, 2.256796189165815E+08, -4.605965304701158E+07,
2461064.500000000, A.D. 2026-Jan-24 00:00:00.0000, 4.275575067315404E+08, 2.342524634970072E+08, -4.692490340155238E+07,
2461071.500000000, A.D. 2026-Jan-31 00:00:00.0000, 4.224726146947864E+08, 2.427284869498101E+08, -4.777076159603077E+07,
2461078.500000000, A.D. 2026-Feb-07 00:00:00.0000, 4.172129293059412E+08, 2.511040606518079E+08, -4.859685331125365E+07,
2461085.500000000, A.D. 2026-Feb-14 00:00:00.0000, 4.117804078656790E+08, 2.593755867417822E+08, -4.940281140462872E+07,
2461092.500000000, A.D. 2026-Feb-21 00:00:00.0000, 4.061770843104591E+08, 2.675394997939160E+08, -5.018827617939088E+07,
2461099.500000000, A.D. 2026-Feb-28 00:00:00.0000, 4.004050694221392E+08, 2.755922700767868E+08, -5.095289548820340E+07,
2461106.500000000, A.D. 2026-Mar-07 00:00:00.0000, 3.944665485515273E+08, 2.835304064482864E+08, -5.169632464129464E+07,
2461113.500000000, A.D. 2026-Mar-14 00:00:00.0000, 3.883637796329379E+08, 2.913504565539046E+08, -5.241822656448184E+07,
2461120.500000000, A.D. 2026-Mar-21 00:00:00.0000, 3.820990932724288E+08, 2.990490072237164E+08, -5.311827213362802E+07,
2461127.500000000, A.D. 2026-Mar-28 00:00:00.0000, 3.756748928976378E+08, 3.066226860944498E+08, -5.379614041646730E+07,
2461134.500000000, A.D. 2026-Apr-04 00:00:00.0000, 3.690936543631986E+08, 3.140681634903732E+08, -5.445151884467451E+07,
2461141.500000000, A.D. 2026-Apr-11 00:00:00.0000, 3.623579252844562E+08, 3.213821542033672E+08, -5.508410337027831E+07,
2461148.500000000, A.D. 2026-Apr-18 00:00:00.0000, 3.554703242587444E+08, 3.285614191660661E+08, -5.569359862136638E+07,
2461155.500000000, A.D. 2026-Apr-25 00:00:00.0000, 3.484335400209040E+08, 3.356027670329774E+08, -5.627971806001742E+07,
2461162.500000000, A.D. 2026-May-02 00:00:00.0000, 3.412503305648150E+08, 3.425030556395113E+08, -5.684218414764006E+07,
2461169.500000000, A.D. 2026-May-09 00:00:00.0000, 3.339235223563942E+08, 3.492591932718032E+08, -5.738072853444725E+07,
2461176.500000000, A.D. 2026-May-16 00:00:00.0000, 3.264560100167164E+08, 3.558681398846240E+08, -5.789509229633549E+07,
2461183.500000000, A.D. 2026-May-23 00:00:00.0000, 3.188507565275266E+08, 3.623269092878945E+08, -5.838502614025430E+07,
2461190.500000000, A.D. 2026-May-30 00:00:00.0000, 3.111107918792779E+08, 3.686325726185923E+08, -5.885029036076999E+07,
2461197.500000000, A.D. 2026-Jun-06 00:00:00.0000, 3.032392098425385E+08, 3.747822598242080E+08, -5.929065478581493E+07,
2461204.500000000, A.D. 2026-Jun-13 00:00:00.0000, 2.952391665298597E+08, 3.807731593574021E+08, -5.970589903204656E+07,
2461211.500000000, A.D. 2026-Jun-20 00:00:00.0000, 2.871138802475854E+08, 3.866025190060504E+08, -6.009581278492109E+07,
2461218.500000000, A.D. 2026-Jun-27 00:00:00.0000, 2.788666309382335E+08, 3.922676475168799E+08, -6.046019597534145E+07,
2461225.500000000, A.D. 2026-Jul-04 00:00:00.0000, 2.705007592127105E+08, 3.977659162367411E+08, -6.079885891621317E+07,
2461232.500000000, A.D. 2026-Jul-11 00:00:00.0000, 2.620196652260687E+08, 4.030947606386467E+08, -6.111162243309654E+07,
2461239.500000000, A.D. 2026-Jul-18 00:00:00.0000, 2.534268074894097E+08, 4.082516817572469E+08, -6.139831799546677E+07,
2461246.500000000, A.D. 2026-Jul-25 00:00:00.0000, 2.447257016422624E+08, 4.132342475353256E+08, -6.165878785066807E+07,
2461253.500000000, A.D. 2026-Aug-01 00:00:00.0000, 2.359199192334082E+08, 4.180400940320893E+08, -6.189288516892676E+07,
2461260.500000000, A.D. 2026-Aug-08 00:00:00.0000, 2.270130867249527E+08, 4.226669264564535E+08, -6.210047422207497E+07,
2461267.500000000, A.D. 2026-Aug-15 00:00:00.0000, 2.180088851349977E+08, 4.271125204751017E+08, -6.228143059734958E+07,
2461274.500000000, A.D. 2026-Aug-22 00:00:00.0000, 2.089110495586450E+08, 4.313747250150992E+08, -6.243564127669677E+07,
2461281.500000000, A.D. 2026-Aug-29 00:00:00.0000, 1.997233662774668E+08, 4.354514651852870E+08, -6.256300448318367E+07,
2461288.500000000, A.D. 2026-Sep-05 00:00:00.0000, 1.904496695894961E+08, 4.393407424479393E+08, -6.266342972417702E+07,
2461295.500000000, A.D. 2026-Sep-12 00:00:00.0000, 1.810938408159226E+08, 4.430406345372443E+08, -6.273683805293389E+07,
$$EOE